[{"OBJECT_NAME":"DONGPO 10","OBJECT_ID":"2022-167H","EPOCH":"2026-03-28T22:45:35.150400","MEAN_MOTION":15.3276261,"ECCENTRICITY":0.0005671,"INCLINATION":97.6869,"RA_OF_ASC_NODE":254.8251,"ARG_OF_PERICENTER":50.9149,"MEAN_ANOMALY":309.2596,"EPHEMERIS_TYPE":0,"CLASSIFICATION_TYPE":"U","NORAD_CAT_ID":54689,"ELEMENT_SET_NO":999,"REV_AT_EPOCH":18306,"BSTAR":0.00043425283,"MEAN_MOTION_DOT":0.00013673,"MEAN_MOTION_DDOT":0},{"OBJECT_NAME":"JILIN-1 GAOFEN 03D48","OBJECT_ID":"2022-167P","EPOCH":"2026-03-28T22:03:11.409984","MEAN_MOTION":15.33453204,"ECCENTRICITY":0.00071526,"INCLINATION":97.68,"RA_OF_ASC_NODE":254.1521,"ARG_OF_PERICENTER":53.1211,"MEAN_ANOMALY":307.0685,"EPHEMERIS_TYPE":0,"CLASSIFICATION_TYPE":"U","NORAD_CAT_ID":54695,"ELEMENT_SET_NO":999,"REV_AT_EPOCH":18308,"BSTAR":0.00045118033,"MEAN_MOTION_DOT":0.00014527,"MEAN_MOTION_DDOT":0},{"OBJECT_NAME":"STAR VIBE","OBJECT_ID":"2023-001A","EPOCH":"2026-03-28T22:29:34.130112","MEAN_MOTION":15.40377901,"ECCENTRICITY":0.00069562,"INCLINATION":97.3257,"RA_OF_ASC_NODE":152.1778,"ARG_OF_PERICENTER":56.3737,"MEAN_ANOMALY":303.8172,"EPHEMERIS_TYPE":0,"CLASSIFICATION_TYPE":"U","NORAD_CAT_ID":55009,"ELEMENT_SET_NO":999,"REV_AT_EPOCH":17986,"BSTAR":0.00044138809,"MEAN_MOTION_DOT":0.0001778,"MEAN_MOTION_DDOT":0},{"OBJECT_NAME":"BRO-8","OBJECT_ID":"2023-001C","EPOCH":"2026-03-28T21:20:02.934240","MEAN_MOTION":15.44358041,"ECCENTRICITY":0.00070008,"INCLINATION":97.3307,"RA_OF_ASC_NODE":152.1679,"ARG_OF_PERICENTER":65.6767,"MEAN_ANOMALY":294.5211,"EPHEMERIS_TYPE":0,"CLASSIFICATION_TYPE":"U","NORAD_CAT_ID":55011,"ELEMENT_SET_NO":999,"REV_AT_EPOCH":17979,"BSTAR":0.00078306546,"MEAN_MOTION_DOT":0.00036185,"MEAN_MOTION_DDOT":0},{"OBJECT_NAME":"CONNECTA T1.2","OBJECT_ID":"2023-001D","EPOCH":"2026-03-28T18:17:26.793024","MEAN_MOTION":15.45810163,"ECCENTRICITY":0.00067341,"INCLINATION":97.3356,"RA_OF_ASC_NODE":157.3108,"ARG_OF_PERICENTER":42.7228,"MEAN_ANOMALY":317.4544,"EPHEMERIS_TYPE":0,"CLASSIFICATION_TYPE":"U","NORAD_CAT_ID":55012,"ELEMENT_SET_NO":999,"REV_AT_EPOCH":18010,"BSTAR":0.00089878681,"MEAN_MOTION_DOT":0.00043687,"MEAN_MOTION_DDOT":0},{"OBJECT_NAME":"BIRKELAND","OBJECT_ID":"2023-001G","EPOCH":"2026-03-28T22:20:11.540832","MEAN_MOTION":15.38581605,"ECCENTRICITY":0.00076931,"INCLINATION":97.3415,"RA_OF_ASC_NODE":155.7576,"ARG_OF_PERICENTER":47.5597,"MEAN_ANOMALY":312.6298,"EPHEMERIS_TYPE":0,"CLASSIFICATION_TYPE":"U","NORAD_CAT_ID":55015,"ELEMENT_SET_NO":999,"REV_AT_EPOCH":18000,"BSTAR":0.00029545475,"MEAN_MOTION_DOT":0.00011186,"MEAN_MOTION_DDOT":0},{"OBJECT_NAME":"ION SCV-008","OBJECT_ID":"2023-001AU","EPOCH":"2026-03-28T21:19:50.603232","MEAN_MOTION":15.27517072,"ECCENTRICITY":0.00137684,"INCLINATION":97.5669,"RA_OF_ASC_NODE":182.9474,"ARG_OF_PERICENTER":297.8591,"MEAN_ANOMALY":62.1252,"EPHEMERIS_TYPE":0,"CLASSIFICATION_TYPE":"U","NORAD_CAT_ID":55051,"ELEMENT_SET_NO":999,"REV_AT_EPOCH":17907,"BSTAR":0.00031533025,"MEAN_MOTION_DOT":8.435e-5,"MEAN_MOTION_DDOT":0},{"OBJECT_NAME":"ION SCV-007","OBJECT_ID":"2023-001BD","EPOCH":"2026-03-28T17:51:04.988736","MEAN_MOTION":14.77474352,"ECCENTRICITY":0.00112575,"INCLINATION":97.9083,"RA_OF_ASC_NODE":152.3302,"ARG_OF_PERICENTER":231.7359,"MEAN_ANOMALY":128.284,"EPHEMERIS_TYPE":0,"CLASSIFICATION_TYPE":"U","NORAD_CAT_ID":55060,"ELEMENT_SET_NO":999,"REV_AT_EPOCH":17437,"BSTAR":7.9507454e-5,"MEAN_MOTION_DOT":5.16e-6,"MEAN_MOTION_DDOT":0},{"OBJECT_NAME":"HUYGENS","OBJECT_ID":"2023-001CN","EPOCH":"2026-03-28T22:20:17.288160","MEAN_MOTION":15.3858183,"ECCENTRICITY":0.00099069,"INCLINATION":97.3325,"RA_OF_ASC_NODE":155.0892,"ARG_OF_PERICENTER":23.6794,"MEAN_ANOMALY":336.4905,"EPHEMERIS_TYPE":0,"CLASSIFICATION_TYPE":"U","NORAD_CAT_ID":55093,"ELEMENT_SET_NO":999,"REV_AT_EPOCH":18002,"BSTAR":0.00030743573,"MEAN_MOTION_DOT":0.00011651,"MEAN_MOTION_DDOT":0},{"OBJECT_NAME":"SHARJAHSAT-1","OBJECT_ID":"2023-001CZ","EPOCH":"2026-03-28T22:28:06.294144","MEAN_MOTION":15.46105748,"ECCENTRICITY":0.00067022,"INCLINATION":97.3252,"RA_OF_ASC_NODE":155.7395,"ARG_OF_PERICENTER":48.8206,"MEAN_ANOMALY":311.3621,"EPHEMERIS_TYPE":0,"CLASSIFICATION_TYPE":"U","NORAD_CAT_ID":55104,"ELEMENT_SET_NO":999,"REV_AT_EPOCH":18008,"BSTAR":0.00046311083,"MEAN_MOTION_DOT":0.00022635,"MEAN_MOTION_DDOT":0},{"OBJECT_NAME":"HORUS 1","OBJECT_ID":"2023-025A","EPOCH":"2026-03-28T22:53:19.323168","MEAN_MOTION":15.23389309,"ECCENTRICITY":0.00023726,"INCLINATION":97.3508,"RA_OF_ASC_NODE":164.2148,"ARG_OF_PERICENTER":124.2803,"MEAN_ANOMALY":235.8659,"EPHEMERIS_TYPE":0,"CLASSIFICATION_TYPE":"U","NORAD_CAT_ID":55690,"ELEMENT_SET_NO":999,"REV_AT_EPOCH":17183,"BSTAR":0.00033910551,"MEAN_MOTION_DOT":7.999e-5,"MEAN_MOTION_DDOT":0},{"OBJECT_NAME":"HORUS 2","OBJECT_ID":"2023-032A","EPOCH":"2026-03-28T22:07:54.548832","MEAN_MOTION":15.23499441,"ECCENTRICITY":0.00019353,"INCLINATION":97.3576,"RA_OF_ASC_NODE":164.9174,"ARG_OF_PERICENTER":96.4006,"MEAN_ANOMALY":263.7451,"EPHEMERIS_TYPE":0,"CLASSIFICATION_TYPE":"U","NORAD_CAT_ID":55844,"ELEMENT_SET_NO":999,"REV_AT_EPOCH":16926,"BSTAR":0.0003131141,"MEAN_MOTION_DOT":7.404e-5,"MEAN_MOTION_DDOT":0},{"OBJECT_NAME":"GLOBAL-19","OBJECT_ID":"2023-041B","EPOCH":"2026-03-28T22:02:36.074112","MEAN_MOTION":15.38923912,"ECCENTRICITY":0.00025425,"INCLINATION":42.0025,"RA_OF_ASC_NODE":310.2075,"ARG_OF_PERICENTER":230.9197,"MEAN_ANOMALY":129.1416,"EPHEMERIS_TYPE":0,"CLASSIFICATION_TYPE":"U","NORAD_CAT_ID":55982,"ELEMENT_SET_NO":999,"REV_AT_EPOCH":16956,"BSTAR":0.00050191619,"MEAN_MOTION_DOT":0.00019565,"MEAN_MOTION_DDOT":0},{"OBJECT_NAME":"BRO-9","OBJECT_ID":"2023-054H","EPOCH":"2026-03-28T18:53:45.964320","MEAN_MOTION":15.68580967,"ECCENTRICITY":0.00018606,"INCLINATION":97.3043,"RA_OF_ASC_NODE":1.4146,"ARG_OF_PERICENTER":36.8064,"MEAN_ANOMALY":323.3325,"EPHEMERIS_TYPE":0,"CLASSIFICATION_TYPE":"U","NORAD_CAT_ID":56185,"ELEMENT_SET_NO":999,"REV_AT_EPOCH":16638,"BSTAR":0.0012348689,"MEAN_MOTION_DOT":0.00141823,"MEAN_MOTION_DDOT":0},{"OBJECT_NAME":"ION SCV-010","OBJECT_ID":"2023-054Q","EPOCH":"2026-03-28T22:55:54.907968","MEAN_MOTION":15.25432138,"ECCENTRICITY":0.00145174,"INCLINATION":97.3886,"RA_OF_ASC_NODE":338.4759,"ARG_OF_PERICENTER":123.6752,"MEAN_ANOMALY":236.5873,"EPHEMERIS_TYPE":0,"CLASSIFICATION_TYPE":"U","NORAD_CAT_ID":56192,"ELEMENT_SET_NO":999,"REV_AT_EPOCH":16396,"BSTAR":0.0002467336,"MEAN_MOTION_DOT":6.183e-5,"MEAN_MOTION_DDOT":0},{"OBJECT_NAME":"GHOST-1","OBJECT_ID":"2023-054T","EPOCH":"2026-03-28T17:05:49.727904","MEAN_MOTION":15.90005215,"ECCENTRICITY":0.00020486,"INCLINATION":97.2989,"RA_OF_ASC_NODE":5.997,"ARG_OF_PERICENTER":107.8527,"MEAN_ANOMALY":252.2969,"EPHEMERIS_TYPE":0,"CLASSIFICATION_TYPE":"U","NORAD_CAT_ID":56195,"ELEMENT_SET_NO":999,"REV_AT_EPOCH":16666,"BSTAR":0.00077842041,"MEAN_MOTION_DOT":0.00230861,"MEAN_MOTION_DDOT":2.1399691e-5}]
