DONGPO 10               
1 54689U 22167H   26087.94832350  .00013673  00000+0  43425-3 0  9997
2 54689  97.6869 254.8251 0005671  50.9149 309.2596 15.32762610183068
JILIN-1 GAOFEN 03D48    
1 54695U 22167P   26087.91888206  .00014527  00000+0  45118-3 0  9992
2 54695  97.6800 254.1521 0007152  53.1211 307.0685 15.33453204183088
STAR VIBE               
1 55009U 23001A   26087.93720058  .00017780  00000+0  44139-3 0  9998
2 55009  97.3257 152.1778 0006956  56.3737 303.8172 15.40377901179864
BRO-8                   
1 55011U 23001C   26087.88892285  .00036185  00000+0  78307-3 0  9991
2 55011  97.3307 152.1679 0007000  65.6767 294.5211 15.44358041179790
CONNECTA T1.2           
1 55012U 23001D   26087.76211566  .00043687  00000+0  89879-3 0  9997
2 55012  97.3356 157.3108 0006734  42.7228 317.4544 15.45810163180100
BIRKELAND               
1 55015U 23001G   26087.93068913  .00011186  00000+0  29545-3 0  9998
2 55015  97.3415 155.7576 0007693  47.5597 312.6298 15.38581605180007
ION SCV-008             
1 55051U 23001AU  26087.88878013  .00008435  00000+0  31533-3 0  9995
2 55051  97.5669 182.9474 0013768 297.8591  62.1252 15.27517072179070
ION SCV-007             
1 55060U 23001BD  26087.74380774  .00000516  00000+0  79507-4 0  9998
2 55060  97.9083 152.3302 0011257 231.7359 128.2840 14.77474352174377
HUYGENS                 
1 55093U 23001CN  26087.93075565  .00011651  00000+0  30744-3 0  9995
2 55093  97.3325 155.0892 0009906  23.6794 336.4905 15.38581830180021
SHARJAHSAT-1            
1 55104U 23001CZ  26087.93618396  .00022635  00000+0  46311-3 0  9994
2 55104  97.3252 155.7395 0006702  48.8206 311.3621 15.46105748180088
HORUS 1                 
1 55690U 23025A   26087.95369587  .00007999  00000+0  33911-3 0  9995
2 55690  97.3508 164.2148 0002372 124.2803 235.8659 15.23389309171830
HORUS 2                 
1 55844U 23032A   26087.92215913  .00007404  00000+0  31311-3 0  9997
2 55844  97.3576 164.9174 0001935  96.4006 263.7451 15.23499441169264
GLOBAL-19               
1 55982U 23041B   26087.91847308  .00019565  00000+0  50192-3 0  9997
2 55982  42.0025 310.2075 0002542 230.9197 129.1416 15.38923912169560
BRO-9                   
1 56185U 23054H   26087.78733755  .00141823  00000+0  12349-2 0  9996
2 56185  97.3043   1.4146 0001860  36.8064 323.3325 15.68580967166381
ION SCV-010             
1 56192U 23054Q   26087.95549662  .00006183  00000+0  24673-3 0  9998
2 56192  97.3886 338.4759 0014517 123.6752 236.5873 15.25432138163962
GHOST-1                 
1 56195U 23054T   26087.71238111  .00230861  21400-4  77842-3 0  9999
2 56195  97.2989   5.9970 0002048 107.8527 252.2969 15.90005215166664
